{"type": "FeatureCollection", "features": [ {"type": "Feature", "properties": {"norad_id": 37331, "name": "COSMOS 2251 DEB", "group": "cosmos-2251-debris", "lat": -38.40014877807646, "lon": -84.27104150714918, "alt_km": 801.0875783090369, "timestamp": "2025-12-04T15:47:54.496883+00:00", "meta": {"OBJECT_NAME": "COSMOS 2251 DEB", "OBJECT_ID": "1993-036BKX", "EPOCH": "2025-12-01T01:26:56.105376", "MEAN_MOTION": 14.34963315, "ECCENTRICITY": 0.0055446, "INCLINATION": 74.0748, "RA_OF_ASC_NODE": 89.2257, "ARG_OF_PERICENTER": 107.2854, "MEAN_ANOMALY": 253.4376, "EPHEMERIS_TYPE": 0, "CLASSIFICATION_TYPE": "U", "NORAD_CAT_ID": 37331, "ELEMENT_SET_NO": 999, "REV_AT_EPOCH": 84592, "BSTAR": 0.00070853607, "MEAN_MOTION_DOT": 2.027e-05, "MEAN_MOTION_DDOT": 0}, "tle": {"line1": "1 37331U 93036BKX 25335.06037159  .00002027  00000+0  70854-3 0  9994", "line2": "2 37331  74.0748  89.2257 0055446 107.2854 253.4376 14.34963315845920"}}, "geometry": {"type": "Point", "coordinates": [-84.27104150714918, -38.40014877807646]}}, {"type": "Feature", "properties": {"norad_id": 37336, "name": "COSMOS 2251 DEB", "group": "cosmos-2251-debris", "lat": -73.3677792744506, "lon": -120.7147573642514, "alt_km": 808.915174637892, "timestamp": "2025-12-04T15:47:54.496894+00:00", "meta": {"OBJECT_NAME": "COSMOS 2251 DEB", "OBJECT_ID": "1993-036BLC", "EPOCH": "2025-12-01T07:48:14.136768", "MEAN_MOTION": 14.32750931, "ECCENTRICITY": 0.00286304, "INCLINATION": 74.0414, "RA_OF_ASC_NODE": 352.0528, "ARG_OF_PERICENTER": 73.4193, "MEAN_ANOMALY": 287.0099, "EPHEMERIS_TYPE": 0, "CLASSIFICATION_TYPE": "U", "NORAD_CAT_ID": 37336, "ELEMENT_SET_NO": 999, "REV_AT_EPOCH": 64956, "BSTAR": 8.422431e-05, "MEAN_MOTION_DOT": 2.05e-06, "MEAN_MOTION_DDOT": 0}, "tle": {"line1": "1 37336U 93036BLC 25335.32516362  .00000205  00000+0  84224-4 0  9999", "line2": "2 37336  74.0414 352.0528 0028630  73.4193 287.0099 14.32750931649565"}}, "geometry": {"type": "Point", "coordinates": [-120.7147573642514, -73.3677792744506]}}, {"type": "Feature", "properties": {"norad_id": 37340, "name": "COSMOS 2251 DEB", "group": "cosmos-2251-debris", "lat": 4.27775709058711, "lon": -66.74808476981008, "alt_km": 759.5165379159143, "timestamp": "2025-12-04T15:47:54.496905+00:00", "meta": {"OBJECT_NAME": "COSMOS 2251 DEB", "OBJECT_ID": "1993-036BLG", "EPOCH": "2025-12-02T15:19:15.488544", "MEAN_MOTION": 14.36901939, "ECCENTRICITY": 0.00173218, "INCLINATION": 74.0249, "RA_OF_ASC_NODE": 295.7387, "ARG_OF_PERICENTER": 33.3574, "MEAN_ANOMALY": 326.8667, "EPHEMERIS_TYPE": 0, "CLASSIFICATION_TYPE": "U", "NORAD_CAT_ID": 37340, "ELEMENT_SET_NO": 999, "REV_AT_EPOCH": 83922, "BSTAR": 0.00027978609, "MEAN_MOTION_DOT": 8.03e-06, "MEAN_MOTION_DDOT": 0}, "tle": {"line1": "1 37340U 93036BLG 25336.63837371  .00000803  00000+0  27979-3 0  9992", "line2": "2 37340  74.0249 295.7387 0017321  33.3574 326.8667 14.36901939839222"}}, "geometry": {"type": "Point", "coordinates": [-66.74808476981008, 4.27775709058711]}}, {"type": "Feature", "properties": {"norad_id": 37483, "name": "COSMOS 2251 DEB", "group": "cosmos-2251-debris", "lat": -69.21458350519481, "lon": 109.18601026335689, "alt_km": 745.4900104668868, "timestamp": "2025-12-04T15:47:54.496915+00:00", "meta": {"OBJECT_NAME": "COSMOS 2251 DEB", "OBJECT_ID": "1993-036BLL", "EPOCH": "2025-12-02T19:14:27.105504", "MEAN_MOTION": 14.43532369, "ECCENTRICITY": 0.00926542, "INCLINATION": 73.9725, "RA_OF_ASC_NODE": 161.8757, "ARG_OF_PERICENTER": 10.6514, "MEAN_ANOMALY": 349.6575, "EPHEMERIS_TYPE": 0, "CLASSIFICATION_TYPE": "U", "NORAD_CAT_ID": 37483, "ELEMENT_SET_NO": 999, "REV_AT_EPOCH": 65136, "BSTAR": 0.00025341126, "MEAN_MOTION_DOT": 8.75e-06, "MEAN_MOTION_DDOT": 0}, "tle": {"line1": "1 37483U 93036BLL 25336.80170261  .00000875  00000+0  25341-3 0  9997", "line2": "2 37483  73.9725 161.8757 0092654  10.6514 349.6575 14.43532369651368"}}, "geometry": {"type": "Point", "coordinates": [109.18601026335689, -69.21458350519481]}}, {"type": "Feature", "properties": {"norad_id": 37484, "name": "COSMOS 2251 DEB", "group": "cosmos-2251-debris", "lat": -42.715628111468966, "lon": 59.15455701382309, "alt_km": 735.4651559222048, "timestamp": "2025-12-04T15:47:54.496925+00:00", "meta": {"OBJECT_NAME": "COSMOS 2251 DEB", "OBJECT_ID": "1993-036BLM", "EPOCH": "2025-12-03T09:20:46.078080", "MEAN_MOTION": 14.41715463, "ECCENTRICITY": 0.00402033, "INCLINATION": 73.8249, "RA_OF_ASC_NODE": 225.9911, "ARG_OF_PERICENTER": 262.1785, "MEAN_ANOMALY": 219.995, "EPHEMERIS_TYPE": 0, "CLASSIFICATION_TYPE": "U", "NORAD_CAT_ID": 37484, "ELEMENT_SET_NO": 999, "REV_AT_EPOCH": 65244, "BSTAR": 0.0010111713, "MEAN_MOTION_DOT": 3.303e-05, "MEAN_MOTION_DDOT": 0}, "tle": {"line1": "1 37484U 93036BLM 25337.38942220  .00003303  00000+0  10112-2 0  9992", "line2": "2 37484  73.8249 225.9911 0040203 262.1785 219.9950 14.41715463652442"}}, "geometry": {"type": "Point", "coordinates": [59.15455701382309, -42.715628111468966]}}, {"type": "Feature", "properties": {"norad_id": 37486, "name": "COSMOS 2251 DEB", "group": "cosmos-2251-debris", "lat": -47.3964841300317, "lon": -32.223934821373966, "alt_km": 955.9185542564383, "timestamp": "2025-12-04T15:47:54.496936+00:00", "meta": {"OBJECT_NAME": "COSMOS 2251 DEB", "OBJECT_ID": "1993-036BLP", "EPOCH": "2025-12-02T16:54:10.956672", "MEAN_MOTION": 14.13188429, "ECCENTRICITY": 0.0228993, "INCLINATION": 73.688, "RA_OF_ASC_NODE": 132.7403, "ARG_OF_PERICENTER": 2.4987, "MEAN_ANOMALY": 12.5088, "EPHEMERIS_TYPE": 0, "CLASSIFICATION_TYPE": "U", "NORAD_CAT_ID": 37486, "ELEMENT_SET_NO": 999, "REV_AT_EPOCH": 63228, "BSTAR": 0.0021348416, "MEAN_MOTION_DOT": 5.104e-05, "MEAN_MOTION_DDOT": 0}, "tle": {"line1": "1 37486U 93036BLP 25336.70429348  .00005104  00000+0  21348-2 0  9994", "line2": "2 37486  73.6880 132.7403 0228993   2.4987  12.5088 14.13188429632281"}}, "geometry": {"type": "Point", "coordinates": [-32.223934821373966, -47.3964841300317]}}, {"type": "Feature", "properties": {"norad_id": 37487, "name": "COSMOS 2251 DEB", "group": "cosmos-2251-debris", "lat": 15.157428223031674, "lon": 23.66702373330245, "alt_km": 636.1223024243427, "timestamp": "2025-12-04T15:47:54.496947+00:00", "meta": {"OBJECT_NAME": "COSMOS 2251 DEB", "OBJECT_ID": "1993-036BLQ", "EPOCH": "2025-12-03T22:50:37.663584", "MEAN_MOTION": 14.80409078, "ECCENTRICITY": 0.0025242, "INCLINATION": 73.9029, "RA_OF_ASC_NODE": 209.5569, "ARG_OF_PERICENTER": 49.3144, "MEAN_ANOMALY": 311.022, "EPHEMERIS_TYPE": 0, "CLASSIFICATION_TYPE": "U", "NORAD_CAT_ID": 37487, "ELEMENT_SET_NO": 999, "REV_AT_EPOCH": 81115, "BSTAR": 0.0061344, "MEAN_MOTION_DOT": 0.00047415, "MEAN_MOTION_DDOT": 0}, "tle": {"line1": "1 37487U 93036BLQ 25337.95182481  .00047415  00000+0  61344-2 0  9998", "line2": "2 37487  73.9029 209.5569 0025242  49.3144 311.0220 14.80409078811153"}}, "geometry": {"type": "Point", "coordinates": [23.66702373330245, 15.157428223031674]}}, {"type": "Feature", "properties": {"norad_id": 37491, "name": "COSMOS 2251 DEB", "group": "cosmos-2251-debris", "lat": 65.09623649114818, "lon": 69.19033645710496, "alt_km": 1206.276263614438, "timestamp": "2025-12-04T15:47:54.496957+00:00", "meta": {"OBJECT_NAME": "COSMOS 2251 DEB", "OBJECT_ID": "1993-036BLU", "EPOCH": "2025-12-03T14:48:31.500000", "MEAN_MOTION": 13.75236476, "ECCENTRICITY": 0.03180692, "INCLINATION": 73.9058, "RA_OF_ASC_NODE": 289.3863, "ARG_OF_PERICENTER": 284.0782, "MEAN_ANOMALY": 72.518, "EPHEMERIS_TYPE": 0, "CLASSIFICATION_TYPE": "U", "NORAD_CAT_ID": 37491, "ELEMENT_SET_NO": 999, "REV_AT_EPOCH": 55621, "BSTAR": 0.0021635807, "MEAN_MOTION_DOT": 2.973e-05, "MEAN_MOTION_DDOT": 0}, "tle": {"line1": "1 37491U 93036BLU 25337.61703125  .00002973  00000+0  21636-2 0  9990", "line2": "2 37491  73.9058 289.3863 0318069 284.0782  72.5180 13.75236476556211"}}, "geometry": {"type": "Point", "coordinates": [69.19033645710496, 65.09623649114818]}}, {"type": "Feature", "properties": {"norad_id": 37498, "name": "COSMOS 2251 DEB", "group": "cosmos-2251-debris", "lat": 6.936840326052959, "lon": -158.82519368387432, "alt_km": 714.874211195609, "timestamp": "2025-12-04T15:47:54.496968+00:00", "meta": {"OBJECT_NAME": "COSMOS 2251 DEB", "OBJECT_ID": "1993-036BMB", "EPOCH": "2025-12-02T07:38:53.705760", "MEAN_MOTION": 14.54689112, "ECCENTRICITY": 0.00134342, "INCLINATION": 74.038, "RA_OF_ASC_NODE": 203.6034, "ARG_OF_PERICENTER": 264.7495, "MEAN_ANOMALY": 95.2135, "EPHEMERIS_TYPE": 0, "CLASSIFICATION_TYPE": "U", "NORAD_CAT_ID": 37498, "ELEMENT_SET_NO": 999, "REV_AT_EPOCH": 65203, "BSTAR": 0.00080152077, "MEAN_MOTION_DOT": 3.406e-05, "MEAN_MOTION_DDOT": 0}, "tle": {"line1": "1 37498U 93036BMB 25336.31867715  .00003406  00000+0  80152-3 0  9990", "line2": "2 37498  74.0380 203.6034 0013434 264.7495  95.2135 14.54689112652037"}}, "geometry": {"type": "Point", "coordinates": [-158.82519368387432, 6.936840326052959]}}, {"type": "Feature", "properties": {"norad_id": 37499, "name": "COSMOS 2251 DEB", "group": "cosmos-2251-debris", "lat": 73.81289316625018, "lon": 76.57974455702136, "alt_km": 754.6554947824443, "timestamp": "2025-12-04T15:47:54.496978+00:00", "meta": {"OBJECT_NAME": "COSMOS 2251 DEB", "OBJECT_ID": "1993-036BMC", "EPOCH": "2025-12-02T18:10:26.857920", "MEAN_MOTION": 14.34326576, "ECCENTRICITY": 0.00266176, "INCLINATION": 74.0374, "RA_OF_ASC_NODE": 340.4656, "ARG_OF_PERICENTER": 59.6085, "MEAN_ANOMALY": 300.7692, "EPHEMERIS_TYPE": 0, "CLASSIFICATION_TYPE": "U", "NORAD_CAT_ID": 37499, "ELEMENT_SET_NO": 999, "REV_AT_EPOCH": 85006, "BSTAR": 0.00020272386, "MEAN_MOTION_DOT": 5.46e-06, "MEAN_MOTION_DDOT": 0}, "tle": {"line1": "1 37499U 93036BMC 25336.75725530  .00000546  00000+0  20272-3 0  9996", "line2": "2 37499  74.0374 340.4656 0026617  59.6085 300.7692 14.34326576850069"}}, "geometry": {"type": "Point", "coordinates": [76.57974455702136, 73.81289316625018]}}]}